[{"OBJECT_NAME":"STARLINK-32506","OBJECT_ID":"2024-225E","EPOCH":"2026-03-09T16:00:03.000096","MEAN_MOTION":14.98307443,"ECCENTRICITY":0.00032524,"INCLINATION":70.0016,"RA_OF_ASC_NODE":164.695,"ARG_OF_PERICENTER":276.331,"MEAN_ANOMALY":207.3346,"EPHEMERIS_TYPE":0,"CLASSIFICATION_TYPE":"U","NORAD_CAT_ID":62167,"ELEMENT_SET_NO":999,"REV_AT_EPOCH":567,"BSTAR":0.003726589,"MEAN_MOTION_DOT":0.00044631,"MEAN_MOTION_DDOT":0},{"OBJECT_NAME":"PSLV DEB","OBJECT_ID":"2001-049CS","EPOCH":"2026-03-09T17:28:51.612960","MEAN_MOTION":14.96014952,"ECCENTRICITY":0.00345383,"INCLINATION":98.0485,"RA_OF_ASC_NODE":147.0031,"ARG_OF_PERICENTER":251.2293,"MEAN_ANOMALY":231.4093,"EPHEMERIS_TYPE":0,"CLASSIFICATION_TYPE":"U","NORAD_CAT_ID":27146,"ELEMENT_SET_NO":999,"REV_AT_EPOCH":30162,"BSTAR":0.00055338741,"MEAN_MOTION_DOT":6.222e-5,"MEAN_MOTION_DDOT":0}]
